1 44246U 19029M   20047.25001157  .00531162  11485-4  32808-3 0  9990
2 44246  52.9878 285.2591 0083921 217.9580  52.3921 16.09442323 42000
1 44246U 19029M   20047.58334491 +.00925170 +11466-4 +57116-3 0  9990
2 44246 052.9869 283.5093 0084059 218.1391 184.8519 16.09390880042053
1 44246U 19029M   20047.91667824  .01634583  11435-4  10053-2 0  9996
2 44246  52.9865 281.7607 0084369 220.0159 315.6633 16.09365721 42112
1 44246U 19029M   20048.25001157  .01231731  11455-4  74998-3 0  9994
2 44246  52.9862 280.0107 0084539 220.8375  87.5908 16.09467434 42162
1 44246U 19029M   20048.50001157  .02837372  11383-4  17449-2 0  9993
2 44246  52.9832 278.6968 0084940 220.9379  97.1176 16.09262179 42206
1 44246U 19029M   20048.75001157  .00837272  11474-4  50657-3 0  9997
2 44246  52.9880 277.3910 0084289 221.5946 106.0704 16.09601243 42245
1 44246U 19029M   20048.91667824 +.00209694 +11505-4 +12700-3 0  9997
2 44246 052.9864 276.5156 0084186 221.6037 352.4906 16.09759981001843
1 44246U 19029M   20049.08334491  .00923484  11472-4  55572-3 0  9994
2 44246  52.9877 275.6398 0084464 221.7159 238.8585 16.09632585 42306
1 44246U 19029M   20049.33334491  .00488910  11493-4  29294-3 0  9997
2 44246  52.9874 274.3237 0084353 221.5022 248.7877 16.09744135 42348
1 44246U 19029M   20049.86358796 -.00025840  11507-4 -13550-4 0  9995
2 44246  52.9854 271.5194 0083209 226.5220  77.9208 16.09619126 42421
1 44246U 19029M   20049.93381587 +.00636043 +11579-4 +32219-3 0  9999
2 44246 052.9839 271.1326 0075426 227.6684 131.7945 16.13136764042441
1 44246U 19029M   20050.05771582  .00586422  11585-4  29508-3 0  9991
2 44246  52.9828 270.4788 0075063 228.1206 131.3409 16.13277011 42460
1 44246U 19029M   20050.49124664  .00927424  11596-4  44892-3 0  9998
2 44246  52.9821 268.1904 0072639 229.9884 129.4761 16.14078382 42532
1 44246U 19029M   20050.55313913 +.01591495 +11586-4 +73963-3 0  9998
2 44246 052.9819 267.8632 0072420 229.1499 130.3245 16.14561439042544
1 44246U 19029M   20050.73866645  .03897901  11574-4  16018-2 0  9990
2 44246  52.9815 266.8806 0067549 231.8316 127.6622 16.16688398 42573
1 44246U 19029M   20050.86218881 +.05174765 +11588-4 +18618-2 0  9998
2 44246 052.9810 266.2249 0064868 232.4352 127.0782 16.18558233042590
1 44246U 19029M   20050.98554309  .06151202  11617-4  18863-2 0  9996
2 44246  52.9806 265.5673 0061614 231.9157 127.6314 16.20753307 42613
1 44246U 19029M   20051.04713943  .08553668  11549-4  23381-2 0  9994
2 44246  52.9781 265.2366 0055998 234.0239 125.5599 16.22776592 42620
1 44246U 19029M   20051.53742632 +.18847941 +12150-4 +66438-3 0  9996
2 44246 052.9748 262.5840 0029422 241.6302 118.1777 16.40672705042704
1 44246U 19029M   20051.53743625  .17658540  12175-4  76906-3 0  9991
2 44246  52.9662 262.5732 0026963 244.6149 115.2104 16.40063924 42707
